STARLINK-35810          
1 66575U 25268U   25337.91670139 -.01857565  00000+0 -14940-1 0  9995
2 66575  42.9990 173.2512 0001583 268.7406  14.5453 15.73321820  3259
STARLINK-35814          
1 66576U 25268V   25337.91670139 -.01855741  00000+0 -14927-1 0  9995
2 66576  42.9989 173.2463 0001371 269.8412  15.3670 15.73318313  3250
STARLINK-35815          
1 66577U 25268W   25337.91670139 -.01858059  00000+0 -14947-1 0  9993
2 66577  42.9991 173.2419 0001282 265.1979  21.9251 15.73321109  3258
STARLINK-35743          
1 66578U 25268X   25337.91670139 -.01855232  00000+0 -14923-1 0  9998
2 66578  42.9991 173.2368 0001297 266.3675  22.6754 15.73317947  3255
STARLINK-35868          
1 66579U 25268Y   25337.91670139 -.01854014  00000+0 -14909-1 0  9990
2 66579  42.9989 173.2320 0001647 269.7887  21.1673 15.73318423  3256
STARLINK-35872          
1 66580U 25268Z   25337.91670139 -.01851670  00000+0 -14888-1 0  9993
2 66580  42.9990 173.2277 0001610 269.5609  23.3117 15.73317600  3254
STARLINK-35744          
1 66581U 25268AA  25337.91670139 -.01870621  00000+0 -15051-1 0  9994
2 66581  42.9991 173.2218 0001588 269.5135  25.2618 15.73336867  3207
STARLINK-35746          
1 66582U 25268AB  25337.91670139 -.01871810  00000+0 -15063-1 0  9999
2 66582  42.9990 173.2174 0001480 272.9159  23.7773 15.73336817  3258
STARLINK-35941          
1 66583U 25268AC  25337.91670139 -.01868738  00000+0 -15036-1 0  9995
2 66583  42.9990 173.2126 0001494 270.4948  28.1178 15.73333937  3258
STARLINK-35939          
1 66584U 25268AD  25337.91670139 -.01849181  00000+0 -14869-1 0  9990
2 66584  42.9989 173.2078 0001492 267.2264  33.3221 15.73312532  3251
STARLINK-35963          
1 66585U 25268AE  25337.91670139 -.01841684  00000+0 -14800-1 0  9996
2 66585  42.9989 173.2040 0001679 273.0320  29.4291 15.73309744  3250
TJS-21                  
1 66586U 25269A   25326.02704417  .00003197  00000+0  53570-3 0  9990
2 66586  51.0366 174.7096 7517987 225.0489  41.6572  2.00992210    24
